NORAD_CAT_ID,OBJECT_NAME,OBJECT_TYPE,EPOCH,MEAN_MOTION,ECCENTRICITY,INCLINATION,RA_OF_ASC_NODE,ARG_OF_PERICENTER,MEAN_ANOMALY,BSTAR,MEAN_MOTION_DOT,MEAN_MOTION_DDOT,TLE_LINE0,TLE_LINE1,TLE_LINE2,SEMIMAJOR_AXIS,PERIOD,APOGEE,PERIGEE,DECAYED
53793.0,STARLINK-4728,PAYLOAD,2022-11-02 14:00:01,15.50898062,0.0001672,53.2176,7.9009,34.7133,23.462,-0.017769,-0.00958559,0.0,0 STARLINK-4728,1 53793U 22111W   22306.58334491 -.00958559  00000-0 -17769-1 0  9998,2 53793  53.2176   7.9009 0001672  34.7133  23.4620 15.50898062  1300,6792.24,92.849,415.24,412.969,0.0
53793.0,STARLINK-4728,PAYLOAD,2022-11-02 22:00:00,15.50099546,0.0001612,53.2176,6.3045,39.4066,80.4891,-0.0056372,-0.0031041,0.0,0 STARLINK-4728,1 53793U 22111W   22306.91667824 -.00310410  00000-0 -56372-2 0  9996,2 53793  53.2176   6.3045 0001612  39.4066  80.4891 15.50099546  8247,6794.571999999999,92.897,417.532,415.342,0.0
53793.0,STARLINK-4728,PAYLOAD,2022-11-03 14:00:01,15.49878804,0.0001817,53.2155,3.1212,30.7611,210.94,0.0012325,0.00070114,0.0,0 STARLINK-4728,1 53793U 22111W   22307.58334491  .00070114  00000-0  12325-2 0  9993,2 53793  53.2155   3.1212 0001817  30.7611 210.9400 15.49878804  8349,6795.217,92.91,418.317,415.848,0.0
53793.0,STARLINK-4728,PAYLOAD,2022-11-03 22:00:00,15.49917519,0.0001629,53.2152,1.5264,34.5388,268.1011,0.00048629,0.00027276,0.0,0 STARLINK-4728,1 53793U 22111W   22307.91667824  .00027276  00000-0  48629-3 0  9997,2 53793  53.2152   1.5264 0001629  34.5388 268.1011 15.49917519  1308,6795.104,92.908,418.076,415.862,0.0
53793.0,STARLINK-4728,PAYLOAD,2022-11-04 06:00:00,15.49970092,0.0001599,53.2156,359.9334,34.5374,329.0575,-0.0004271,-0.00024689,0.0,0 STARLINK-4728,1 53793U 22111W   22308.25001157 -.00024689  00000-0 -42710-3 0  9998,2 53793  53.2156 359.9334 0001599  34.5374 329.0575 15.49970092  8440,6794.95,92.905,417.902,415.729,0.0
53793.0,STARLINK-4728,PAYLOAD,2022-11-04 14:00:01,15.49991894,0.0001704,53.2162,358.3417,26.9973,37.6006,-0.0041368,-0.00229374,0.0,0 STARLINK-4728,1 53793U 22111W   22308.58334491 -.00229374  00000-0 -41368-2 0  9999,2 53793  53.2162 358.3417 0001704  26.9973  37.6006 15.49991894  8501,6794.887,92.904,417.91,415.594,0.0
53793.0,STARLINK-4728,PAYLOAD,2022-11-04 22:00:01,15.49922639,0.000162,53.2151,356.7468,30.9867,94.6606,-0.0011238,-0.00063802,0.0,0 STARLINK-4728,1 53793U 22111W   22308.91668981 -.00063802  00000-0 -11238-2 0  9995,2 53793  53.2151 356.7468 0001620  30.9867  94.6606 15.49922639  8556,6795.089,92.908,418.055,415.853,0.0
53793.0,STARLINK-4728,PAYLOAD,2022-11-05 14:00:01,15.49723908,0.0001792,53.2167,353.5614,38.8399,208.6836,-0.011608,-0.00607134,0.0,0 STARLINK-4728,1 53793U 22111W   22309.58335648 -.00607134  00000-0 -11608-1 0  9992,2 53793  53.2167 353.5614 0001792  38.8399 208.6836 15.49723908  1304,6795.67,92.92,418.753,416.317,0.0
53793.0,STARLINK-4728,PAYLOAD,2022-11-05 22:00:01,15.49106807,0.0001875,53.2176,351.9677,26.7619,281.3424,-0.016078,-0.00813834,0.0,0 STARLINK-4728,1 53793U 22111W   22309.91668981 -.00813834  00000-0 -16078-1 0  9990,2 53793  53.2176 351.9677 0001875  26.7619 281.3424 15.49106807  8703,6797.475,92.957,420.614,418.065,0.0
53793.0,STARLINK-4728,PAYLOAD,2022-11-06 06:00:00,15.48536387,0.0004542,53.2172,350.3764,275.9965,91.6746,-0.023792,-0.01176625,0.0,0 STARLINK-4728,1 53793U 22111W   22310.25001157 -.01176625  00000-0 -23792-1 0  9997,2 53793  53.2172 350.3764 0004542 275.9965  91.6746 15.48536387  8758,6799.144,92.991,424.097,417.921,0.0
53793.0,STARLINK-4728,PAYLOAD,2022-11-06 14:00:01,15.47703931,0.0001885,53.217,348.7894,27.6736,38.7755,-0.023814,-0.01145554,0.0,0 STARLINK-4728,1 53793U 22111W   22310.58334491 -.01145554  00000-0 -23814-1 0  9995,2 53793  53.2170 348.7894 0001885  27.6736  38.7755 15.47703931  8815,6801.581999999999,93.041,424.729,422.165,0.0
53793.0,STARLINK-4728,PAYLOAD,2022-11-07 14:00:01,15.45283652,0.0001647,53.2168,344.0346,41.7311,195.1536,-0.026564,-0.01172187,0.0,0 STARLINK-4728,1 53793U 22111W   22311.58334491 -.01172187  00000-0 -26564-1 0  9993,2 53793  53.2168 344.0346 0001647  41.7311 195.1536 15.45283652  8967,6808.682,93.187,431.668,429.425,0.0
53793.0,STARLINK-4728,PAYLOAD,2022-11-07 22:00:00,15.44445714,0.0001472,53.2175,342.4512,43.1235,248.6349,-0.026523,-0.01140066,0.0,0 STARLINK-4728,1 53793U 22111W   22311.91667824 -.01140066  00000-0 -26523-1 0  9995,2 53793  53.2175 342.4512 0001472  43.1235 248.6349 15.44445714  1304,6811.144,93.237,434.012,432.007,0.0
53793.0,STARLINK-4728,PAYLOAD,2022-11-08 14:00:01,15.42837284,0.0001571999999999,53.2165,339.2972,40.7341,357.7990000000001,-0.028672,-0.01164478,0.0,0 STARLINK-4728,1 53793U 22111W   22312.58334491 -.01164478  00000-0 -28672-1 0  9990,2 53793  53.2165 339.2972 0001572  40.7341 357.7990 15.42837284  1308,6815.877,93.335,438.814,436.671,0.0
53793.0,STARLINK-4728,PAYLOAD,2022-11-08 22:00:00,15.42043307,0.0001753,53.217,337.7203,33.2992,57.1519,-0.030218,-0.01192161,0.0,0 STARLINK-4728,1 53793U 22111W   22312.91667824 -.01192161  00000-0 -30218-1 0  9995,2 53793  53.2170 337.7203 0001753  33.2992  57.1519 15.42043307  9170,6818.217,93.383,441.277,438.886,0.0
53793.0,STARLINK-4728,PAYLOAD,2022-11-09 14:00:01,15.40457768,0.0001622,53.2164,334.5774,40.4888,150.8581,-0.033449,-0.01245813,0.0,0 STARLINK-4728,1 53793U 22111W   22313.58334491 -.01245813  00000-0 -33449-1 0  9992,2 53793  53.2164 334.5774 0001622  40.4888 150.8581 15.40457768  1305,6822.894,93.479,445.866,443.653,0.0
53793.0,STARLINK-4728,PAYLOAD,2022-11-09 22:00:01,15.39570432,0.0001561,53.2169,333.006,48.067,192.376,-0.031524,-0.01149055,0.0,0 STARLINK-4728,1 53793U 22111W   22313.91668981 -.01149055  00000-0 -31524-1 0  9996,2 53793  53.2169 333.0060 0001561  48.0670 192.3760 15.39570432  9329,6825.516,93.533,448.446,446.315,0.0
53793.0,STARLINK-4728,PAYLOAD,2022-11-10 14:00:01,15.37956567,0.0001615,53.2165,329.8747,35.4716,299.951,-0.033797,-0.01166469,0.0,0 STARLINK-4728,1 53793U 22111W   22314.58334491 -.01166469  00000-0 -33797-1 0  9998,2 53793  53.2165 329.8747 0001615  35.4716 299.9510 15.37956567  1303,6830.29,93.631,453.258,451.052,0.0
53793.0,STARLINK-4728,PAYLOAD,2022-11-10 22:00:00,15.37132494,0.0001615,53.2169,328.3093,33.5405,347.9475,-0.034275,-0.01152826,0.0,0 STARLINK-4728,1 53793U 22111W   22314.91667824 -.01152826  00000-0 -34275-1 0  9998,2 53793  53.2169 328.3093 0001615  33.5405 347.9475 15.37132494  9485,6832.731,93.681,455.699,453.492,0.0
53793.0,STARLINK-4728,PAYLOAD,2022-11-11 14:00:01,15.35512939,0.0001853,53.2166,325.1894,36.431,74.2369,-0.036461,-0.01162741,0.0,0 STARLINK-4728,1 53793U 22111W   22315.58334491 -.01162741  00000-0 -36461-1 0  9999,2 53793  53.2166 325.1894 0001853  36.4310  74.2369 15.35512939  1306,6837.534000000002,93.78,460.666,458.132,0.0
53793.0,STARLINK-4728,PAYLOAD,2022-11-11 22:00:00,15.34683034,0.0001804,53.2172,323.63,38.8192,114.9839,-0.036732,-0.01142434,0.0,0 STARLINK-4728,1 53793U 22111W   22315.91667824 -.01142434  00000-0 -36732-1 0  9993,2 53793  53.2172 323.6300 0001804  38.8192 114.9839 15.34683034  9630,6839.999,93.83,463.098,460.63,0.0
53793.0,STARLINK-4728,PAYLOAD,2022-11-12 14:00:01,15.33075332,0.0001696999999999,53.2166,320.5216,42.4203,194.6897,-0.039637,-0.0116857,0.0,0 STARLINK-4728,1 53793U 22111W   22316.58334491 -.01168570  00000-0 -39637-1 0  9994,2 53793  53.2166 320.5216 0001697  42.4203 194.6897 15.33075332  1309,6844.78,93.929,467.807,465.484,0.0
53793.0,STARLINK-4728,PAYLOAD,2022-11-12 22:00:00,15.32250232,0.0001745,53.2171,318.968,35.8613,241.4467,-0.040066,-0.01152325,0.0,0 STARLINK-4728,1 53793U 22111W   22316.91667824 -.01152325  00000-0 -40066-1 0  9999,2 53793  53.2171 318.9680 0001745  35.8613 241.4467 15.32250232  9783,6847.236999999999,93.979,470.297,467.907,0.0
53793.0,STARLINK-4728,PAYLOAD,2022-11-13 14:00:01,15.30633294,0.0001694,53.2166,315.8711,33.2455,321.5072,-0.042726,-0.01166555,0.0,0 STARLINK-4728,1 53793U 22111W   22317.58334491 -.01166555  00000-0 -42726-1 0  9999,2 53793  53.2166 315.8711 0001694  33.2455 321.5072 15.30633294  1300,6852.059,94.079,475.084,472.763,0.0
53793.0,STARLINK-4728,PAYLOAD,2022-11-13 22:00:00,15.29806654,0.0001894,53.2169,314.3233,27.2508,4.7673,-0.043105,-0.01148722,0.0,0 STARLINK-4728,1 53793U 22111W   22317.91667824 -.01148722  00000-0 -43105-1 0  9993,2 53793  53.2169 314.3233 0001894  27.2508   4.7673 15.29806654  1307,6854.526999999999,94.13,477.69,475.094,0.0
53793.0,STARLINK-4728,PAYLOAD,2022-11-14 14:00:01,15.28169956,0.0002162,53.2172,311.2378,27.4392,76.1662,-0.04478,-0.01135735,0.0,0 STARLINK-4728,1 53793U 22111W   22318.58334491 -.01135735  00000-0 -44780-1 0  9998,2 53793  53.2172 311.2378 0002162  27.4392  76.1662 15.28169956  1306,6859.42,94.23,482.768,479.802,0.0
53793.0,STARLINK-4728,PAYLOAD,2022-11-14 22:00:00,15.2735655,0.0002088,53.2175,309.6959,31.4109,106.5203,-0.045965,-0.01136897,0.0,0 STARLINK-4728,1 53793U 22111W   22318.91667824 -.01136897  00000-0 -45965-1 0  9990,2 53793  53.2175 309.6959 0002088  31.4109 106.5203 15.27356550  1309,6861.855,94.281,485.153,482.288,0.0
53793.0,STARLINK-4728,PAYLOAD,2022-11-15 02:00:01,15.26950118,0.0001751999999999,53.2177,308.9271,34.0665,300.6596,-0.046542,-0.01136858,0.0,0 STARLINK-4728,1 53793U 22111W   22319.08334491 -.01136858  00000-0 -46542-1 0  9999,2 53793  53.2177 308.9271 0001752  34.0665 300.6596 15.26950118 10113,6863.073,94.306,486.14,483.735,0.0
53793.0,STARLINK-4728,PAYLOAD,2022-11-15 14:00:01,15.25774218,0.0001913,53.2165,306.622,38.1307,165.4938,-0.051058,-0.01214013,0.0,0 STARLINK-4728,1 53793U 22111W   22319.58334491 -.01214013  00000-0 -51058-1 0  9992,2 53793  53.2165 306.6220 0001913  38.1307 165.4938 15.25774218  1308,6866.599,94.378,489.777,487.15,0.0
53793.0,STARLINK-4728,PAYLOAD,2022-11-15 22:00:00,15.24914984,0.0001763,53.2174,305.0857,43.0882,191.9505,-0.049451,-0.0115078,0.0,0 STARLINK-4728,1 53793U 22111W   22319.91667824 -.01150780  00000-0 -49451-1 0  9992,2 53793  53.2174 305.0857 0001763  43.0882 191.9505 15.24914984  1302,6869.178000000001,94.431,492.254,489.832,0.0
